[
    {
        "Altitude(m)": 610405.3499927284,
        "Argument of Periapsis(deg)": 0.0,
        "Eccentricity": 0.0,
        "Inclination(deg)": 60.0,
        "Latitude(deg)": 52.111345954393265,
        "Longitude(deg)": 92.47741741702268,
        "Mean Anomaly(deg)": 114.5455,
        "RAAN(deg)": 60.0,
        "Satellite Name": "Test1 271",
        "Satellite Number": 271,
        "Semi-Major Axis(m)": 6980739.136638005,
        "Time(s)": 0
    },
    {
        "Altitude(m)": 610321.9230551138,
        "Argument of Periapsis(deg)": 0.00010418945913296404,
        "Eccentricity": 0.0,
        "Inclination(deg)": 60.0,
        "Latitude(deg)": 51.746060934936324,
        "Longitude(deg)": 93.2463125106874,
        "Mean Anomaly(deg)": 115.16560614546184,
        "RAAN(deg)": 59.99957995086026,
        "Satellite Name": "Test1 271",
        "Satellite Number": 271,
        "Semi-Major Axis(m)": 6980739.136638005,
        "Time(s)": 10
    },
    {
        "Altitude(m)": 610237.131957262,
        "Argument of Periapsis(deg)": 0.0002083789182659281,
        "Eccentricity": 0.0,
        "Inclination(deg)": 60.0,
        "Latitude(deg)": 51.375256826880175,
        "Longitude(deg)": 94.00215500531664,
        "Mean Anomaly(deg)": 115.78571229092368,
        "RAAN(deg)": 59.99915990172052,
        "Satellite Name": "Test1 271",
        "Satellite Number": 271,
        "Semi-Major Axis(m)": 6980739.136638005,
        "Time(s)": 20
    },
    {
        "Altitude(m)": 610151.026879932,
        "Argument of Periapsis(deg)": 0.00031256837739889213,
        "Eccentricity": 0.0,
        "Inclination(deg)": 60.0,
        "Latitude(deg)": 50.9990922155279,
        "Longitude(deg)": 94.74513803060273,
        "Mean Anomaly(deg)": 116.4058184363855,
        "RAAN(deg)": 59.998739852580776,
        "Satellite Name": "Test1 271",
        "Satellite Number": 271,
        "Semi-Major Axis(m)": 6980739.136638005,
        "Time(s)": 30
    },
    {
        "Altitude(m)": 610063.6588663845,
        "Argument of Periapsis(deg)": 0.0004167578365318562,
        "Eccentricity": 0.0,
        "Inclination(deg)": 60.0,
        "Latitude(deg)": 50.617721932223056,
        "Longitude(deg)": 95.4754624181047,
        "Mean Anomaly(deg)": 117.02592458184733,
        "RAAN(deg)": 59.998319803441035,
        "Satellite Name": "Test1 271",
        "Satellite Number": 271,
        "Semi-Major Axis(m)": 6980739.136638005,
        "Time(s)": 40
    },
    {
        "Altitude(m)": 609975.0797977806,
        "Argument of Periapsis(deg)": 0.0005209472956648203,
        "Eccentricity": 0.0,
        "Inclination(deg)": 60.0,
        "Latitude(deg)": 50.2312970292172,
        "Longitude(deg)": 96.19333464259014,
        "Mean Anomaly(deg)": 117.64603072730915,
        "RAAN(deg)": 59.99789975430128,
        "Satellite Name": "Test1 271",
        "Satellite Number": 271,
        "Semi-Major Axis(m)": 6980739.136638005,
        "Time(s)": 50
    },
    {
        "Altitude(m)": 609885.3423680998,
        "Argument of Periapsis(deg)": 0.0006251367547977843,
        "Eccentricity": 0.0,
        "Inclination(deg)": 60.0,
        "Latitude(deg)": 49.83996476919934,
        "Longitude(deg)": 96.89896634703705,
        "Mean Anomaly(deg)": 118.26613687277099,
        "RAAN(deg)": 59.99747970516154,
        "Satellite Name": "Test1 271",
        "Satellite Number": 271,
        "Semi-Major Axis(m)": 6980739.136638005,
        "Time(s)": 60
    },
    {
        "Altitude(m)": 609794.500058671,
        "Argument of Periapsis(deg)": 0.0007293262139307483,
        "Eccentricity": 0.0,
        "Inclination(deg)": 60.0,
        "Latitude(deg)": 49.443868628056215,
        "Longitude(deg)": 97.59257393689454,
        "Mean Anomaly(deg)": 118.8862430182328,
        "RAAN(deg)": 59.9970596560218,
        "Satellite Name": "Test1 271",
        "Satellite Number": 271,
        "Semi-Major Axis(m)": 6980739.136638005,
        "Time(s)": 70
    },
    {
        "Altitude(m)": 609702.6071122686,
        "Argument of Periapsis(deg)": 0.0008335156730637124,
        "Eccentricity": 0.0,
        "Inclination(deg)": 60.0,
        "Latitude(deg)": 49.043148309507025,
        "Longitude(deg)": 98.27437672878887,
        "Mean Anomaly(deg)": 119.50634916369464,
        "RAAN(deg)": 59.996639606882056,
        "Satellite Name": "Test1 271",
        "Satellite Number": 271,
        "Semi-Major Axis(m)": 6980739.136638005,
        "Time(s)": 80
    },
    {
        "Altitude(m)": 609609.7185068304,
        "Argument of Periapsis(deg)": 0.0009377051321966765,
        "Eccentricity": 0.0,
        "Inclination(deg)": 60.0,
        "Latitude(deg)": 48.63793977033068,
        "Longitude(deg)": 98.94459667715975,
        "Mean Anomaly(deg)": 120.12645530915646,
        "RAAN(deg)": 59.996219557742315,
        "Satellite Name": "Test1 271",
        "Satellite Number": 271,
        "Semi-Major Axis(m)": 6980739.136638005,
        "Time(s)": 90
    },
    {
        "Altitude(m)": 609515.8899287668,
        "Argument of Periapsis(deg)": 0.0010418945913296407,
        "Eccentricity": 0.0,
        "Inclination(deg)": 60.0,
        "Latitude(deg)": 48.22837525498345,
        "Longitude(deg)": 99.6034581634248,
        "Mean Anomaly(deg)": 120.74656145461832,
        "RAAN(deg)": 59.995799508602566,
        "Satellite Name": "Test1 271",
        "Satellite Number": 271,
        "Semi-Major Axis(m)": 6980739.136638005,
        "Time(s)": 100
    },
    {
        "Altitude(m)": 609421.1777459139,
        "Argument of Periapsis(deg)": 0.0011460840504626045,
        "Eccentricity": 0.0,
        "Inclination(deg)": 60.0,
        "Latitude(deg)": 47.814583338483295,
        "Longitude(deg)": 100.25118633207511,
        "Mean Anomaly(deg)": 121.36666760008015,
        "RAAN(deg)": 59.995379459462825,
        "Satellite Name": "Test1 271",
        "Satellite Number": 271,
        "Semi-Major Axis(m)": 6980739.136638005,
        "Time(s)": 110
    },
    {
        "Altitude(m)": 609325.6389801034,
        "Argument of Periapsis(deg)": 0.0012502735095955685,
        "Eccentricity": 0.0,
        "Inclination(deg)": 60.0,
        "Latitude(deg)": 47.39668897651567,
        "Longitude(deg)": 100.88800699660334,
        "Mean Anomaly(deg)": 121.98677374554197,
        "RAAN(deg)": 59.99495941032308,
        "Satellite Name": "Test1 271",
        "Satellite Number": 271,
        "Semi-Major Axis(m)": 6980739.136638005,
        "Time(s)": 120
    },
    {
        "Altitude(m)": 609229.3312793896,
        "Argument of Periapsis(deg)": 0.0013544629687285324,
        "Eccentricity": 0.0,
        "Inclination(deg)": 60.0,
        "Latitude(deg)": 46.9748135617936,
        "Longitude(deg)": 101.51414659944624,
        "Mean Anomaly(deg)": 122.6068798910038,
        "RAAN(deg)": 59.994539361183335,
        "Satellite Name": "Test1 271",
        "Satellite Number": 271,
        "Semi-Major Axis(m)": 6980739.136638005,
        "Time(s)": 130
    },
    {
        "Altitude(m)": 609132.3128899495,
        "Argument of Periapsis(deg)": 0.0014586524278614966,
        "Eccentricity": 0.0,
        "Inclination(deg)": 60.0,
        "Latitude(deg)": 46.54907498577986,
        "Longitude(deg)": 102.12983071008661,
        "Mean Anomaly(deg)": 123.22698603646562,
        "RAAN(deg)": 59.994119312043594,
        "Satellite Name": "Test1 271",
        "Satellite Number": 271,
        "Semi-Major Axis(m)": 6980739.136638005,
        "Time(s)": 140
    },
    {
        "Altitude(m)": 609034.6426276128,
        "Argument of Periapsis(deg)": 0.0015628418869944607,
        "Eccentricity": 0.0,
        "Inclination(deg)": 60.0,
        "Latitude(deg)": 46.11958770495231,
        "Longitude(deg)": 102.73528408407834,
        "Mean Anomaly(deg)": 123.84709218192745,
        "RAAN(deg)": 59.99369926290385,
        "Satellite Name": "Test1 271",
        "Satellite Number": 271,
        "Semi-Major Axis(m)": 6980739.136638005,
        "Time(s)": 150
    },
    {
        "Altitude(m)": 608936.3798491198,
        "Argument of Periapsis(deg)": 0.0016670313461274247,
        "Eccentricity": 0.0,
        "Inclination(deg)": 60.0,
        "Latitude(deg)": 45.68646281086298,
        "Longitude(deg)": 103.33073076715719,
        "Mean Anomaly(deg)": 124.4671983273893,
        "RAAN(deg)": 59.99327921376411,
        "Satellite Name": "Test1 271",
        "Satellite Number": 271,
        "Semi-Major Axis(m)": 6980739.136638005,
        "Time(s)": 160
    },
    {
        "Altitude(m)": 608837.5844230726,
        "Argument of Periapsis(deg)": 0.0017712208052603888,
        "Eccentricity": 0.0,
        "Inclination(deg)": 60.0,
        "Latitude(deg)": 45.24980810330879,
        "Longitude(deg)": 103.91639272865034,
        "Mean Anomaly(deg)": 125.08730447285112,
        "RAAN(deg)": 59.99285916462437,
        "Satellite Name": "Test1 271",
        "Satellite Number": 271,
        "Semi-Major Axis(m)": 6980739.136638005,
        "Time(s)": 170
    },
    {
        "Altitude(m)": 608738.316700546,
        "Argument of Periapsis(deg)": 0.001875410264393353,
        "Eccentricity": 0.0,
        "Inclination(deg)": 60.0,
        "Latitude(deg)": 44.80972816599465,
        "Longitude(deg)": 104.49249004709523,
        "Mean Anomaly(deg)": 125.70741061831295,
        "RAAN(deg)": 59.99243911548463,
        "Satellite Name": "Test1 271",
        "Satellite Number": 271,
        "Semi-Major Axis(m)": 6980739.136638005,
        "Time(s)": 180
    },
    {
        "Altitude(m)": 608638.6374854974,
        "Argument of Periapsis(deg)": 0.0019795997235263173,
        "Eccentricity": 0.0,
        "Inclination(deg)": 60.0,
        "Latitude(deg)": 44.36632444412871,
        "Longitude(deg)": 105.0592411324407,
        "Mean Anomaly(deg)": 126.32751676377477,
        "RAAN(deg)": 59.99201906634489,
        "Satellite Name": "Test1 271",
        "Satellite Number": 271,
        "Semi-Major Axis(m)": 6980739.136638005,
        "Time(s)": 190
    }
]